CCSDS_OMM_VERS = 2.0
CREATION_DATE  = 
ORIGINATOR     = 

OBJECT_NAME    = COSMOS 1743
OBJECT_ID      = 1986-034A
CENTER_NAME    = EARTH
REF_FRAME      = TEME
TIME_SYSTEM    = UTC
MEAN_ELEMENT_THEORY = SGP/SGP4

EPOCH          = 2025-10-31T20:09:13.404672
MEAN_MOTION    = 15.49279903
ECCENTRICITY   = .000891
INCLINATION    = 82.5387
RA_OF_ASC_NODE = 208.0084
ARG_OF_PERICENTER = 53.2650
MEAN_ANOMALY   = 306.9418

EPHEMERIS_TYPE = 0
CLASSIFICATION_TYPE = U
NORAD_CAT_ID   = 16719
ELEMENT_SET_NO = 999
REV_AT_EPOCH   = 16024
BSTAR          = .62038E-3
MEAN_MOTION_DOT = .34066E-3
MEAN_MOTION_DDOT = 0

CCSDS_OMM_VERS = 2.0
CREATION_DATE  = 
ORIGINATOR     = 

OBJECT_NAME    = SL-14 R/B
OBJECT_ID      = 1986-046B
CENTER_NAME    = EARTH
REF_FRAME      = TEME
TIME_SYSTEM    = UTC
MEAN_ELEMENT_THEORY = SGP/SGP4

EPOCH          = 2025-10-31T17:57:49.802112
MEAN_MOTION    = 14.85421681
ECCENTRICITY   = .0021799
INCLINATION    = 82.4843
RA_OF_ASC_NODE = 201.9636
ARG_OF_PERICENTER = 296.3009
MEAN_ANOMALY   = 63.5968

EPHEMERIS_TYPE = 0
CLASSIFICATION_TYPE = U
NORAD_CAT_ID   = 16792
ELEMENT_SET_NO = 999
REV_AT_EPOCH   = 10726
BSTAR          = .76874E-4
MEAN_MOTION_DOT = .688E-5
MEAN_MOTION_DDOT = 0

CCSDS_OMM_VERS = 2.0
CREATION_DATE  = 
ORIGINATOR     = 

OBJECT_NAME    = SL-14 R/B
OBJECT_ID      = 1986-055B
CENTER_NAME    = EARTH
REF_FRAME      = TEME
TIME_SYSTEM    = UTC
MEAN_ELEMENT_THEORY = SGP/SGP4

EPOCH          = 2025-10-31T19:34:07.581792
MEAN_MOTION    = 14.85459008
ECCENTRICITY   = .0020164
INCLINATION    = 82.5201
RA_OF_ASC_NODE = 247.7613
ARG_OF_PERICENTER = 42.2379
MEAN_ANOMALY   = 18.9980

EPHEMERIS_TYPE = 0
CLASSIFICATION_TYPE = U
NORAD_CAT_ID   = 16882
ELEMENT_SET_NO = 999
REV_AT_EPOCH   = 10023
BSTAR          = .92951E-4
MEAN_MOTION_DOT = .828E-5
MEAN_MOTION_DDOT = 0

CCSDS_OMM_VERS = 2.0
CREATION_DATE  = 
ORIGINATOR     = 

OBJECT_NAME    = AJISAI (EGS)
OBJECT_ID      = 1986-061A
CENTER_NAME    = EARTH
REF_FRAME      = TEME
TIME_SYSTEM    = UTC
MEAN_ELEMENT_THEORY = SGP/SGP4

EPOCH          = 2025-10-31T20:04:35.569056
MEAN_MOTION    = 12.44514081
ECCENTRICITY   = .001113
INCLINATION    = 50.0063
RA_OF_ASC_NODE = 129.5673
ARG_OF_PERICENTER = 320.0251
MEAN_ANOMALY   = 170.9635

EPHEMERIS_TYPE = 0
CLASSIFICATION_TYPE = U
NORAD_CAT_ID   = 16908
ELEMENT_SET_NO = 999
REV_AT_EPOCH   = 45195
BSTAR          = .10879E-3
MEAN_MOTION_DOT = -.82E-6
MEAN_MOTION_DDOT = 0

CCSDS_OMM_VERS = 2.0
CREATION_DATE  = 
ORIGINATOR     = 

OBJECT_NAME    = COSMOS 1812
OBJECT_ID      = 1987-003A
CENTER_NAME    = EARTH
REF_FRAME      = TEME
TIME_SYSTEM    = UTC
MEAN_ELEMENT_THEORY = SGP/SGP4

EPOCH          = 2025-10-31T19:43:20.445888
MEAN_MOTION    = 15.67442793
ECCENTRICITY   = .0003407
INCLINATION    = 82.4909
RA_OF_ASC_NODE = 337.1006
ARG_OF_PERICENTER = 174.5714
MEAN_ANOMALY   = 185.5584

EPHEMERIS_TYPE = 0
CLASSIFICATION_TYPE = U
NORAD_CAT_ID   = 17295
ELEMENT_SET_NO = 999
REV_AT_EPOCH   = 12407
BSTAR          = .69227E-3
MEAN_MOTION_DOT = .75392E-3
MEAN_MOTION_DDOT = 0

CCSDS_OMM_VERS = 2.0
CREATION_DATE  = 
ORIGINATOR     = 

OBJECT_NAME    = SL-14 R/B
OBJECT_ID      = 1987-024B
CENTER_NAME    = EARTH
REF_FRAME      = TEME
TIME_SYSTEM    = UTC
MEAN_ELEMENT_THEORY = SGP/SGP4

EPOCH          = 2025-10-31T18:16:20.514720
MEAN_MOTION    = 14.85959893
ECCENTRICITY   = .0017614
INCLINATION    = 82.5305
RA_OF_ASC_NODE = 213.8804
ARG_OF_PERICENTER = 332.5836
MEAN_ANOMALY   = 27.4450

EPHEMERIS_TYPE = 0
CLASSIFICATION_TYPE = U
NORAD_CAT_ID   = 17567
ELEMENT_SET_NO = 999
REV_AT_EPOCH   = 6898
BSTAR          = .83504E-4
MEAN_MOTION_DOT = .755E-5
MEAN_MOTION_DDOT = 0

CCSDS_OMM_VERS = 2.0
CREATION_DATE  = 
ORIGINATOR     = 

OBJECT_NAME    = COSMOS 1833
OBJECT_ID      = 1987-027A
CENTER_NAME    = EARTH
REF_FRAME      = TEME
TIME_SYSTEM    = UTC
MEAN_ELEMENT_THEORY = SGP/SGP4

EPOCH          = 2025-10-31T19:25:30.953856
MEAN_MOTION    = 14.13024953
ECCENTRICITY   = .0020592
INCLINATION    = 70.9164
RA_OF_ASC_NODE = 236.9185
ARG_OF_PERICENTER = 31.2912
MEAN_ANOMALY   = 328.9430

EPHEMERIS_TYPE = 0
CLASSIFICATION_TYPE = U
NORAD_CAT_ID   = 17589
ELEMENT_SET_NO = 999
REV_AT_EPOCH   = 99210
BSTAR          = -.14201E-3
MEAN_MOTION_DOT = -.314E-5
MEAN_MOTION_DDOT = 0

CCSDS_OMM_VERS = 2.0
CREATION_DATE  = 
ORIGINATOR     = 

OBJECT_NAME    = SL-16 R/B
OBJECT_ID      = 1987-027B
CENTER_NAME    = EARTH
REF_FRAME      = TEME
TIME_SYSTEM    = UTC
MEAN_ELEMENT_THEORY = SGP/SGP4

EPOCH          = 2025-10-31T19:18:01.304064
MEAN_MOTION    = 14.17142149
ECCENTRICITY   = .0006785
INCLINATION    = 71.0022
RA_OF_ASC_NODE = 188.0826
ARG_OF_PERICENTER = 303.8558
MEAN_ANOMALY   = 56.1920

EPHEMERIS_TYPE = 0
CLASSIFICATION_TYPE = U
NORAD_CAT_ID   = 17590
ELEMENT_SET_NO = 999
REV_AT_EPOCH   = 99712
BSTAR          = .4312E-4
MEAN_MOTION_DOT = .39E-6
MEAN_MOTION_DDOT = 0

CCSDS_OMM_VERS = 2.0
CREATION_DATE  = 
ORIGINATOR     = 

OBJECT_NAME    = SL-14 R/B
OBJECT_ID      = 1987-038B
CENTER_NAME    = EARTH
REF_FRAME      = TEME
TIME_SYSTEM    = UTC
MEAN_ELEMENT_THEORY = SGP/SGP4

EPOCH          = 2025-10-31T19:47:42.650880
MEAN_MOTION    = 14.85194823
ECCENTRICITY   = .0018233
INCLINATION    = 82.5024
RA_OF_ASC_NODE = 58.1692
ARG_OF_PERICENTER = 227.6266
MEAN_ANOMALY   = 132.3408

EPHEMERIS_TYPE = 0
CLASSIFICATION_TYPE = U
NORAD_CAT_ID   = 17912
ELEMENT_SET_NO = 999
REV_AT_EPOCH   = 6010
BSTAR          = .93551E-4
MEAN_MOTION_DOT = .827E-5
MEAN_MOTION_DDOT = 0

CCSDS_OMM_VERS = 2.0
CREATION_DATE  = 
ORIGINATOR     = 

OBJECT_NAME    = COSMOS 1844
OBJECT_ID      = 1987-041A
CENTER_NAME    = EARTH
REF_FRAME      = TEME
TIME_SYSTEM    = UTC
MEAN_ELEMENT_THEORY = SGP/SGP4

EPOCH          = 2025-10-31T16:45:09.654624
MEAN_MOTION    = 14.14509178
ECCENTRICITY   = .0032409
INCLINATION    = 70.8975
RA_OF_ASC_NODE = 306.2449
ARG_OF_PERICENTER = 219.2642
MEAN_ANOMALY   = 140.6130

EPHEMERIS_TYPE = 0
CLASSIFICATION_TYPE = U
NORAD_CAT_ID   = 17973
ELEMENT_SET_NO = 999
REV_AT_EPOCH   = 98534
BSTAR          = .20141E-3
MEAN_MOTION_DOT = .34E-5
MEAN_MOTION_DDOT = 0

CCSDS_OMM_VERS = 2.0
CREATION_DATE  = 
ORIGINATOR     = 

OBJECT_NAME    = SL-14 R/B
OBJECT_ID      = 1987-055B
CENTER_NAME    = EARTH
REF_FRAME      = TEME
TIME_SYSTEM    = UTC
MEAN_ELEMENT_THEORY = SGP/SGP4

EPOCH          = 2025-10-31T18:09:39.953088
MEAN_MOTION    = 14.85452128
ECCENTRICITY   = .0022213
INCLINATION    = 82.4961
RA_OF_ASC_NODE = 110.5539
ARG_OF_PERICENTER = 80.5802
MEAN_ANOMALY   = 279.7923

EPHEMERIS_TYPE = 0
CLASSIFICATION_TYPE = U
NORAD_CAT_ID   = 18153
ELEMENT_SET_NO = 999
REV_AT_EPOCH   = 5079
BSTAR          = .83737E-4
MEAN_MOTION_DOT = .749E-5
MEAN_MOTION_DDOT = 0

CCSDS_OMM_VERS = 2.0
CREATION_DATE  = 
ORIGINATOR     = 

OBJECT_NAME    = COSMOS 1867
OBJECT_ID      = 1987-060A
CENTER_NAME    = EARTH
REF_FRAME      = TEME
TIME_SYSTEM    = UTC
MEAN_ELEMENT_THEORY = SGP/SGP4

EPOCH          = 2025-10-31T18:07:25.184640
MEAN_MOTION    = 14.31475411
ECCENTRICITY   = .0013767
INCLINATION    = 65.0103
RA_OF_ASC_NODE = 307.7760
ARG_OF_PERICENTER = 266.9862
MEAN_ANOMALY   = 92.9647

EPHEMERIS_TYPE = 0
CLASSIFICATION_TYPE = U
NORAD_CAT_ID   = 18187
ELEMENT_SET_NO = 999
REV_AT_EPOCH   = 148
BSTAR          = .40068E-4
MEAN_MOTION_DOT = .6E-7
MEAN_MOTION_DDOT = 0

