COSMOS 1743             
1 16719U 86034A   25304.83973848  .00034066  00000+0  62038-3 0  9999
2 16719  82.5387 208.0084 0008910  53.2650 306.9418 15.49279903160243
SL-14 R/B               
1 16792U 86046B   25304.74849308  .00000688  00000+0  76874-4 0  9993
2 16792  82.4843 201.9636 0021799 296.3009  63.5968 14.85421681107263
SL-14 R/B               
1 16882U 86055B   25304.81536553  .00000828  00000+0  92951-4 0  9996
2 16882  82.5201 247.7613 0020164  42.2379  18.9980 14.85459008100230
AJISAI (EGS)            
1 16908U 86061A   25304.83652279 -.00000082  00000+0  10879-3 0  9999
2 16908  50.0063 129.5673 0011130 320.0251 170.9635 12.44514081451957
COSMOS 1812             
1 17295U 87003A   25304.82176442  .00075392  00000+0  69227-3 0  9994
2 17295  82.4909 337.1006 0003407 174.5714 185.5584 15.67442793124079
SL-14 R/B               
1 17567U 87024B   25304.76134855  .00000755  00000+0  83504-4 0  9990
2 17567  82.5305 213.8804 0017614 332.5836  27.4450 14.85959893 68980
COSMOS 1833             
1 17589U 87027A   25304.80938604 -.00000314  00000+0 -14201-3 0  9996
2 17589  70.9164 236.9185 0020592  31.2912 328.9430 14.13024953992101
SL-16 R/B               
1 17590U 87027B   25304.80418176  .00000039  00000+0  43120-4 0  9990
2 17590  71.0022 188.0826 0006785 303.8558  56.1920 14.17142149997122
SL-14 R/B               
1 17912U 87038B   25304.82479920  .00000827  00000+0  93551-4 0  9994
2 17912  82.5024  58.1692 0018233 227.6266 132.3408 14.85194823 60105
COSMOS 1844             
1 17973U 87041A   25304.69802841  .00000340  00000+0  20141-3 0  9996
2 17973  70.8975 306.2449 0032409 219.2642 140.6130 14.14509178985341
SL-14 R/B               
1 18153U 87055B   25304.75671242  .00000749  00000+0  83737-4 0  9992
2 18153  82.4961 110.5539 0022213  80.5802 279.7923 14.85452128 50797
COSMOS 1867             
1 18187U 87060A   25304.75515260  .00000006  00000+0  40068-4 0  9998
2 18187  65.0103 307.7760 0013767 266.9862  92.9647 14.31475411  1486
